SIRION PATHFINDER-2     
1 43759U 18099B   26177.69535594  .00004950  00000+0  27128-3 0  9994
2 43759  97.4251 226.5266 0007112 264.2955  95.7466 15.14627414414068
CORVUS BC4              
1 43767U 18099K   26177.58253288  .00004420  00000+0  25694-3 0  9996
2 43767  97.4066 220.2876 0007261 339.9581  20.1364 15.12565566413828
M2 PATHFINDER           
1 45727U 20037E   26177.48993696  .00002926  00000+0  21205-3 0  9995
2 45727  97.8135   8.8257 0012563 119.4503 240.7978 15.04708030326893
NETSAT-4                
1 46504U 20068U   26177.19804052  .00019512  00000+0  42747-3 0  9991
2 46504  97.8601 186.1637 0003168 289.3785  70.7119 15.44149820317165
NETSAT-3                
1 46505U 20068V   26177.27604884  .00020517  00000+0  46733-3 0  9998
2 46505  97.8652 184.4532 0003131 318.1999  41.9007 15.42978668317080
NETSAT-1                
1 46506U 20068W   26177.26336497  .00013502  00000+0  40195-3 0  9992
2 46506  97.8742 178.6632 0003902   2.5836 357.5425 15.34840028316692
NETSAT-2                
1 46507U 20068X   26177.48426273  .00021599  00000+0  43836-3 0  9999
2 46507  97.8613 186.4021 0001975 351.4742   8.6472 15.46383273317176
GREENCUBE (IO-117)      
1 53109U 22080E   26176.74430124 -.00000003  00000+0  00000+0 0  9999
2 53109  70.1444 295.2691 0008975 287.7502  72.2178  6.42583224 92615
SITRO-AIS 5 (KATYS)     
1 57176U 23091L   26177.62141591  .00011987  00000+0  41862-3 0  9992
2 57176  97.5063 241.6111 0012411  74.2060 286.0547 15.29662826165788
SITRO-AIS 6 (CHIRKIN)   
1 57192U 23091AC  26177.55665240  .00010039  00000+0  39103-3 0  9996
2 57192  97.5070 240.6148 0012864  77.5614 282.7062 15.26105071165715
SITRO-AIS 8 (ANOKHIN)   
1 57193U 23091AD  26177.62184691  .00014405  00000+0  46207-3 0  9995
2 57193  97.5059 243.2388 0011349  70.6472 289.5995 15.32378875165891
SITRO-AIS 7 (FARTUSHNIY)
1 57194U 23091AE  26177.56172663  .00010005  00000+0  39342-3 0  9999
2 57194  97.5068 240.4401 0012759  78.5329 281.7341 15.25789615165700
SITRO-AIS 10 (BURDAEV)  
1 57199U 23091AK  26177.54841423  .00019018  00000+0  49453-3 0  9996
2 57199  97.5084 248.3155 0006696  51.5264 308.6580 15.38951162166200
SITRO-AIS 9 (SHCHUKIN)  
1 57201U 23091AM  26177.51278628  .00018391  00000+0  48615-3 0  9990
2 57201  97.5083 248.0017 0006992  51.6988 308.4885 15.38449794166186
SITRO-AIS 12 (SMIRENNIY)
1 57204U 23091AQ  26177.56666056  .00018404  00000+0  48193-3 0  9990
2 57204  97.5095 248.5299 0006466  46.2913 313.8867 15.38744981166213
SITRO-AIS 11 (SHEFFER)  
1 57208U 23091AU  26177.57747038  .00018333  00000+0  47341-3 0  9990
2 57208  97.5094 248.7935 0006339  45.8256 314.3510 15.39175463166236
SITRO-AIS 25            
1 59066U 24039R   26177.62190284  .00002309  00000+0  18221-3 0  9999
2 59066  95.3909 241.5759 0142596 295.3895  63.2625 14.93556064126134
SITRO-AIS 26            
1 59067U 24039S   26177.49055341  .00002269  00000+0  17997-3 0  9993
2 59067  95.3909 241.3814 0142957 296.4522  62.2096 14.93349585126101
SITRO-AIS 27            
1 59068U 24039T   26177.59216897  .00003095  00000+0  24226-3 0  9991
2 59068  95.3913 241.7271 0141883 294.6600  63.9906 14.93771692126142
SITRO-AIS 28            
1 59071U 24039U   26177.63638286  .00002638  00000+0  20675-3 0  9996
2 59071  95.3910 241.8054 0141887 294.3291  64.3175 14.93803750126155
GRBBETA                 
1 60237U 24128C   26177.57781919  .00003256  00000+0  22893-3 0  9997
2 60237  61.9878 183.3174 0039451 136.6258 223.7951 15.06690888107681
OOV-CUBE (TUBSAT-30)    
1 60240U 24128F   26177.30430608  .00001677  00000+0  13798-3 0  9997
2 60240  61.9924 193.7808 0043497 135.8027 224.6553 15.02804000107481
ROBUSTA-3A (MEDITERRAN*)
1 60243U 24128J   26177.32907742  .00005597  00000+0  33331-3 0  9990
2 60243  61.9842 175.9128 0040139 130.0414 230.4214 15.11754630107805
LASARSAT                
1 62391U 24247Q   26177.53530900  .00029264  00000+0  57325-3 0  9995
2 62391  44.9728 209.6637 0007194  27.8989 332.2285 15.46893107 84768
CROCUBE                 
1 62394U 24247T   26175.39308509  .00030725  00000+0  56517-3 0  9994
2 62394  44.9701 218.9251 0007226  18.8099 341.3058 15.48681185 84464
FORESAIL-1 PRIME        
1 66778U 25276DS  26177.68183133  .00005118  00000+0  24930-3 0  9997
2 66778  97.4202 250.7789 0003907  84.1634 276.0046 15.18782211 31840
KNACKSAT-2              
1 67683U 98067XZ  26177.44486485  .00049509  00000+0  58452-3 0  9999
2 67683  51.6280 247.8833 0008675 257.0459 102.9566 15.60782463 21720
